STARLINK-2022           
1 47643U 21012Z   23365.33852602  .00000460  00000+0  49811-4 0  9994
2 47643  53.0556  40.0504 0001523 106.2481 253.8675 15.06395962159788
